NORAD_CAT_ID,OBJECT_NAME,OBJECT_TYPE,EPOCH,MEAN_MOTION,ECCENTRICITY,INCLINATION,RA_OF_ASC_NODE,ARG_OF_PERICENTER,MEAN_ANOMALY,BSTAR,MEAN_MOTION_DOT,MEAN_MOTION_DDOT,TLE_LINE0,TLE_LINE1,TLE_LINE2,SEMIMAJOR_AXIS,PERIOD,APOGEE,PERIGEE,DECAYED
55790.0,STARLINK-5813,PAYLOAD,2023-05-15 12:20:55,15.69917215,0.0003544,69.9969,310.6248,264.1562,95.923,2.053e-05,2.256e-05,0.0,0 STARLINK-5813,1 55790U 23028BB  23135.51453582  .00002256  00000-0  20530-4 0  9997,2 55790  69.9969 310.6248 0003544 264.1562  95.9230 15.69917215 12098,6737.271,91.725,361.524,356.748,0.0
55790.0,STARLINK-5813,PAYLOAD,2023-05-15 18:27:55,15.69929404,0.000357,69.9993,309.9083,260.9787,99.1005,3.2137e-05,3.654e-05,0.0,0 STARLINK-5813,1 55790U 23028BB  23135.76939623  .00003654  00000-0  32137-4 0  9998,2 55790  69.9993 309.9083 0003570 260.9787  99.1005 15.69929404 12128,6737.236,91.724,361.506,356.696,0.0
55790.0,STARLINK-5813,PAYLOAD,2023-05-16 12:48:57,15.69925692,0.0003576,70.0006,307.7625,258.4182,101.6612,1.6607e-05,1.785e-05,0.0,0 STARLINK-5813,1 55790U 23028BB  23136.53399823  .00001785  00000-0  16607-4 0  9993,2 55790  70.0006 307.7625 0003576 258.4182 101.6612 15.69925692 12253,6737.247,91.724,361.521,356.702,0.0
55790.0,STARLINK-5813,PAYLOAD,2023-05-17 19:23:59,15.69927497,0.0002923,70.0018,304.1782,254.4474,105.6399,1.4614e-05,1.545e-05,0.0,0 STARLINK-5813,1 55790U 23028BB  23137.80832985  .00001545  00000-0  14614-4 0  9995,2 55790  70.0018 304.1782 0002923 254.4474 105.6399 15.69927497 12448,6737.241,91.724,361.076,357.137,0.0
55790.0,STARLINK-5813,PAYLOAD,2023-05-17 20:55:45,15.69929773,0.0003269,69.9986,303.9952,265.0673,95.015,-7.2257e-06,-1.082e-05,0.0,0 STARLINK-5813,1 55790U 23028BB  23137.87204897 -.00001082  00000-0 -72257-5 0  9993,2 55790  69.9986 303.9952 0003269 265.0673  95.0150 15.69929773 12466,6737.235,91.724,361.302,356.898,0.0
55790.0,STARLINK-5813,PAYLOAD,2023-05-18 12:13:16,15.6992364,0.0003708,69.9995,302.2056,269.6636,90.4135,-4.6416e-06,-7.71e-06,0.0,0 STARLINK-5813,1 55790U 23028BB  23138.50921786 -.00000771  00000-0 -46416-5 0  9999,2 55790  69.9995 302.2056 0003708 269.6636  90.4135 15.69923640 12559,6737.252,91.724,361.616,356.619,0.0
55790.0,STARLINK-5813,PAYLOAD,2023-05-18 21:23:47,15.69927767,0.0003509,69.9981,301.1309,265.7635,94.316,4.8403e-06,3.69e-06,0.0,0 STARLINK-5813,1 55790U 23028BB  23138.89151768  .00000369  00000-0  48403-5 0  9995,2 55790  69.9981 301.1309 0003509 265.7635  94.3160 15.69927767 12621,6737.241,91.724,361.47,356.742,0.0
55790.0,STARLINK-5813,PAYLOAD,2023-05-18 22:55:32,15.69907858,0.0003648,69.9978,300.9498,272.6659,87.4119,4.9864e-05,5.783e-05,0.0,0 STARLINK-5813,1 55790U 23028BB  23138.95524294  .00005783  00000-0  49864-4 0  9996,2 55790  69.9978 300.9498 0003648 272.6659  87.4119 15.69907858 12626,6737.298,91.725,361.62,356.705,0.0
55790.0,STARLINK-5813,PAYLOAD,2023-05-19 09:37:48,15.69928842,0.0003481,69.9981,299.6954,270.8504,89.2293,8.1533e-06,7.68e-06,0.0,0 STARLINK-5813,1 55790U 23028BB  23139.40125160  .00000768  00000-0  81533-5 0  9994,2 55790  69.9981 299.6954 0003481 270.8504  89.2293 15.69928842 12691,6737.238,91.724,361.448,356.757,0.0
55790.0,STARLINK-5813,PAYLOAD,2023-05-19 17:16:33,15.69948703,0.0003308,70.0001,298.8011,269.5483,90.5334,-3.1179e-05,-3.964e-05,0.0,0 STARLINK-5813,1 55790U 23028BB  23139.71982843 -.00003964  00000-0 -31179-4 0  9990,2 55790  70.0001 298.8011 0003308 269.5483  90.5334 15.69948703 12746,6737.181,91.723,361.274,356.817,0.0
55790.0,STARLINK-5813,PAYLOAD,2023-05-19 20:20:03,15.69938673,0.0003142,69.999,298.4427,267.0509,93.0327,-5.3391e-06,-8.55e-06,0.0,0 STARLINK-5813,1 55790U 23028BB  23139.84726360 -.00000855  00000-0 -53391-5 0  9991,2 55790  69.9990 298.4427 0003142 267.0509  93.0327 15.69938673 12773,6737.209,91.723,361.191,356.958,0.0
55790.0,STARLINK-5813,PAYLOAD,2023-05-20 10:05:50,15.69928107,0.0003879,69.9984,296.8308,273.479,86.5962,1.115e-05,1.128e-05,0.0,0 STARLINK-5813,1 55790U 23028BB  23140.42071827  .00001128  00000-0  11150-4 0  9996,2 55790  69.9984 296.8308 0003879 273.4790  86.5962 15.69928107 12858,6737.24,91.724,361.718,356.491,0.0
55790.0,STARLINK-5813,PAYLOAD,2023-05-20 14:41:04,15.69941519,0.000365,69.9984,296.2924,273.1882,86.8896,2.6807e-05,3.014e-05,0.0,0 STARLINK-5813,1 55790U 23028BB  23140.61185764  .00003014  00000-0  26807-4 0  9994,2 55790  69.9984 296.2924 0003650 273.1882  86.8896 15.69941519 12886,6737.201,91.723,361.525,356.607,0.0
55790.0,STARLINK-5813,PAYLOAD,2023-05-20 19:16:19,15.69944904,0.0003667,69.9999,295.7545,274.3938,85.6839,4.074e-05,4.693e-05,0.0,0 STARLINK-5813,1 55790U 23028BB  23140.80300780  .00004693  00000-0  40740-4 0  9998,2 55790  69.9999 295.7545 0003667 274.3938  85.6839 15.69944904 12928,6737.192,91.723,361.527,356.586,0.0
55790.0,STARLINK-5813,PAYLOAD,2023-05-21 13:37:23,15.69902754,0.0004407,69.9999,293.6042,291.6393,68.4333,-1.9452e-05,-2.55e-05,0.0,0 STARLINK-5813,1 55790U 23028BB  23141.56763549 -.00002550  00000-0 -19452-4 0  9996,2 55790  69.9999 293.6042 0004407 291.6393  68.4333 15.69902754 13035,6737.312,91.725,362.146,356.208,0.0
55790.0,STARLINK-5813,PAYLOAD,2023-05-21 18:12:38,15.69912425,0.0003064,70.0012,293.068,276.9823,83.1024,-2.8835e-06,-5.59e-06,0.0,0 STARLINK-5813,1 55790U 23028BB  23141.75878174 -.00000559  00000-0 -28835-5 0  9991,2 55790  70.0012 293.0680 0003064 276.9823  83.1024 15.69912425 13079,6737.285,91.725,361.214,357.085,0.0
55790.0,STARLINK-5813,PAYLOAD,2023-05-22 03:23:08,15.69933991,0.0003031,70.0013,291.9945,265.9392,94.1457,3.2521e-05,3.701e-05,0.0,0 STARLINK-5813,1 55790U 23028BB  23142.14107078  .00003701  00000-0  32521-4 0  9999,2 55790  70.0013 291.9945 0003031 265.9392  94.1457 15.69933991 13123,6737.223,91.724,361.13,357.046,0.0
55790.0,STARLINK-5813,PAYLOAD,2023-05-22 11:01:54,15.69934029,0.0003298,70.002,291.0985,265.0243,95.0576,5.0386e-05,5.852e-05,0.0,0 STARLINK-5813,1 55790U 23028BB  23142.45965585  .00005852  00000-0  50386-4 0  9996,2 55790  70.0020 291.0985 0003298 265.0243  95.0576 15.69934029 13188,6737.223,91.724,361.31,356.866,0.0
55790.0,STARLINK-5813,PAYLOAD,2023-05-22 14:05:24,15.69931617,0.0003483,70.0012,290.7391,264.9561,95.1237,4.2768e-05,4.934e-05,0.0,0 STARLINK-5813,1 55790U 23028BB  23142.58708960  .00004934  00000-0  42768-4 0  9997,2 55790  70.0012 290.7391 0003483 264.9561  95.1237 15.69931617 13199,6737.23,91.724,361.441,356.748,0.0
55790.0,STARLINK-5813,PAYLOAD,2023-05-23 16:05:11,15.69938218,0.0003443,70.0004,287.6946,263.4695,96.6109,3.7014e-05,4.243e-05,0.0,0 STARLINK-5813,1 55790U 23028BB  23143.67026897  .00004243  00000-0  37014-4 0  9991,2 55790  70.0004 287.6946 0003443 263.4695  96.6109 15.69938218 13366,6737.211,91.723,361.395,356.756,0.0
55790.0,STARLINK-5813,PAYLOAD,2023-05-23 19:08:42,15.69910768,0.0002993,70.0015,287.3372,264.9661,95.1193,-1.8603e-05,-2.447e-05,0.0,0 STARLINK-5813,1 55790U 23028BB  23143.79771729 -.00002447  00000-0 -18603-4 0  9994,2 55790  70.0015 287.3372 0002993 264.9661  95.1193 15.69910768 13396,6737.289,91.725,361.171,357.138,0.0
55790.0,STARLINK-5813,PAYLOAD,2023-05-24 02:47:28,15.69914949,0.0003245,70.0007,286.4411,266.5093,93.5732,-2.0448e-05,-2.67e-05,0.0,0 STARLINK-5813,1 55790U 23028BB  23144.11629759 -.00002670  00000-0 -20448-4 0  9994,2 55790  70.0007 286.4411 0003245 266.5093  93.5732 15.69914949 13430,6737.277,91.725,361.329,356.956,0.0
55790.0,STARLINK-5813,PAYLOAD,2023-05-25 18:33:00,15.69931526,0.000369,69.998,281.7833,270.4831,89.5942,6.1155e-07,-1.39e-06,0.0,0 STARLINK-5813,1 55790U 23028BB  23145.77292430 -.00000139  00000-0  61155-6 0  9998,2 55790  69.9980 281.7833 0003690 270.4831  89.5942 15.69931526 13697,6737.23,91.724,361.581,356.609,0.0
55790.0,STARLINK-5813,PAYLOAD,2023-05-26 11:22:17,15.69925223,0.0003628,69.9974,279.8127,271.5964,88.4816,-5.2984e-07,-2.77e-06,0.0,0 STARLINK-5813,1 55790U 23028BB  23146.47381200 -.00000277  00000-0 -52984-6 0  9994,2 55790  69.9974 279.8127 0003628 271.5964  88.4816 15.69925223 13813,6737.248,91.724,361.557,356.669,0.0
55790.0,STARLINK-5813,PAYLOAD,2023-05-26 19:01:03,15.6991173,0.0003282,69.9977,278.9168,270.502,89.5799,2.3585e-05,2.623e-05,0.0,0 STARLINK-5813,1 55790U 23028BB  23146.79240012  .00002623  00000-0  23585-4 0  9992,2 55790  69.9977 278.9168 0003282 270.5020  89.5799 15.69911730 13864,6737.287,91.725,361.363,356.94,0.0
55790.0,STARLINK-5813,PAYLOAD,2023-05-27 10:18:34,15.69923001,0.0003517,69.9974,277.1236,271.6322,88.4471,4.9193e-06,3.79e-06,0.0,0 STARLINK-5813,1 55790U 23028BB  23147.42956342  .00000379  00000-0  49193-5 0  9993,2 55790  69.9974 277.1236 0003517 271.6322  88.4471 15.69923001 13955,6737.254,91.724,361.489,356.75,0.0
55790.0,STARLINK-5813,PAYLOAD,2023-05-27 17:57:19,15.69934576,0.000367,69.9993,276.2311,270.4315,89.646,1.5275e-05,1.625e-05,0.0,0 STARLINK-5813,1 55790U 23028BB  23147.74813740  .00001625  00000-0  15275-4 0  9990,2 55790  69.9993 276.2311 0003670 270.4315  89.6460 15.69934576 14006,6737.221,91.724,361.559,356.614,0.0
55790.0,STARLINK-5813,PAYLOAD,2023-05-28 01:36:05,15.69919924,0.0003488,69.9986,275.3343,271.4674,88.6122,5.5898e-06,4.59e-06,0.0,0 STARLINK-5813,1 55790U 23028BB  23148.06673160  .00000459  00000-0  55898-5 0  9996,2 55790  69.9986 275.3343 0003488 271.4674  88.6122 15.69919924 14058,6737.263,91.724,361.478,356.778,0.0
55790.0,STARLINK-5813,PAYLOAD,2023-05-28 18:25:21,15.69926296,0.0003192,69.9989,273.364,273.8705,86.2125,1.7693e-05,1.915e-05,0.0,0 STARLINK-5813,1 55790U 23028BB  23148.76761088  .00001915  00000-0  17693-4 0  9998,2 55790  69.9989 273.3640 0003192 273.8705  86.2125 15.69926296 14161,6737.245,91.724,361.26,356.959,0.0
55790.0,STARLINK-5813,PAYLOAD,2023-05-29 02:04:08,15.69913578,0.0003459,69.9993,272.4684,273.589,86.491,1.0897e-05,1.097e-05,0.0,0 STARLINK-5813,1 55790U 23028BB  23149.08620390  .00001097  00000-0  10897-4 0  9994,2 55790  69.9993 272.4684 0003459 273.5890  86.4910 15.69913578 14211,6737.281,91.725,361.477,356.816,0.0
